NORAD_CAT_ID,OBJECT_NAME,OBJECT_TYPE,EPOCH,MEAN_MOTION,ECCENTRICITY,INCLINATION,RA_OF_ASC_NODE,ARG_OF_PERICENTER,MEAN_ANOMALY,BSTAR,MEAN_MOTION_DOT,MEAN_MOTION_DDOT,TLE_LINE0,TLE_LINE1,TLE_LINE2,SEMIMAJOR_AXIS,PERIOD,APOGEE,PERIGEE,DECAYED
51811.0,STARLINK-3569,PAYLOAD,2023-06-15 07:46:41,15.08836162,0.0001274,53.2165,140.9556,86.8607,273.2531,4.4089e-05,4.14e-06,0.0,0 STARLINK-3569,1 51811U 22017AV  23166.32409049  .00000414  00000-0  44089-4 0  9995,2 51811  53.2165 140.9556 0001274  86.8607 273.2531 15.08836162 73248,6917.892,95.438,540.638,538.876,0.0
51811.0,STARLINK-3569,PAYLOAD,2023-06-15 15:43:36,15.08839858,0.0001275,53.2166,139.4689,86.4447,273.6691,5.5112e-05,5.89e-06,0.0,0 STARLINK-3569,1 51811U 22017AV  23166.65528833  .00000589  00000-0  55112-4 0  9996,2 51811  53.2166 139.4689 0001275  86.4447 273.6691 15.08839858 73299,6917.881,95.438,540.628,538.864,0.0
51811.0,STARLINK-3569,PAYLOAD,2023-06-16 07:37:27,15.08850869,0.0001269,53.2163,136.4948,87.9547,272.159,0.00011166,1.49e-05,0.0,0 STARLINK-3569,1 51811U 22017AV  23167.31767818  .00001490  00000-0  11166-3 0  9990,2 51811  53.2163 136.4948 0001269  87.9547 272.1590 15.08850869 73490,6917.847,95.437,540.59,538.834,0.0
51811.0,STARLINK-3569,PAYLOAD,2023-06-16 15:34:23,15.08845549,0.000124,53.2161,135.0079,88.7877,271.3257,3.3924e-05,2.52e-06,0.0,0 STARLINK-3569,1 51811U 22017AV  23167.64888269  .00000252  00000-0  33924-4 0  9992,2 51811  53.2161 135.0079 0001240  88.7877 271.3257 15.08845549 73548,6917.863,95.437,540.586,538.871,0.0
51811.0,STARLINK-3569,PAYLOAD,2023-06-17 07:28:14,15.0884232,0.0001308,53.2164,132.035,83.3742,276.7399,7.0776e-05,8.39e-06,0.0,0 STARLINK-3569,1 51811U 22017AV  23168.31128370  .00000839  00000-0  70776-4 0  9994,2 51811  53.2164 132.0350 0001308  83.3742 276.7399 15.08842320 73547,6917.873,95.437,540.643,538.833,0.0
51811.0,STARLINK-3569,PAYLOAD,2023-06-17 21:46:43,15.08835845,0.0001325,53.216,129.3585,84.3084,275.8059,-5.4864e-05,-1.161e-05,0.0,0 STARLINK-3569,1 51811U 22017AV  23168.90745221 -.00001161  00000-0 -54864-4 0  9990,2 51811  53.2160 129.3585 0001325  84.3084 275.8059 15.08835845 73739,6917.893,95.438,540.675,538.841,0.0
51811.0,STARLINK-3569,PAYLOAD,2023-06-18 07:19:02,15.08838377,0.000133,53.2163,127.5737,86.0773,274.0371,-7.2721e-05,-1.445e-05,0.0,0 STARLINK-3569,1 51811U 22017AV  23169.30489187 -.00001445  00000-0 -72721-4 0  9998,2 51811  53.2163 127.5737 0001330  86.0773 274.0371 15.08838377 73697,6917.885,95.438,540.67,538.83,0.0
51811.0,STARLINK-3569,PAYLOAD,2023-06-18 13:40:35,15.08840433,0.0001339,53.2165,126.3845,86.0584,274.0562,-5.8832e-05,-1.224e-05,0.0,0 STARLINK-3569,1 51811U 22017AV  23169.56985019 -.00001224  00000-0 -58832-4 0  9993,2 51811  53.2165 126.3845 0001339  86.0584 274.0562 15.08840433 73738,6917.879,95.438,540.67,538.818,0.0
51811.0,STARLINK-3569,PAYLOAD,2023-06-19 05:34:26,15.08841129,0.0001322,53.2165,123.4104,81.9829,278.1313,4.5776e-05,4.41e-06,0.0,0 STARLINK-3569,1 51811U 22017AV  23170.23224746  .00000441  00000-0  45776-4 0  9993,2 51811  53.2165 123.4104 0001322  81.9829 278.1313 15.08841129 73936,6917.877,95.437,540.656,538.827,0.0
51811.0,STARLINK-3569,PAYLOAD,2023-06-19 13:31:22,15.08838445,0.0001258,53.2166,121.9247,81.0611,279.0524,7.7243e-07,-2.76e-06,0.0,0 STARLINK-3569,1 51811U 22017AV  23170.56345093 -.00000276  00000-0  77243-6 0  9991,2 51811  53.2166 121.9247 0001258  81.0611 279.0524 15.08838445 73881,6917.885,95.438,540.62,538.88,0.0
51811.0,STARLINK-3569,PAYLOAD,2023-06-20 07:00:36,15.08831996,0.000124,53.2165,118.6536,83.4334,276.68,0.00013072,1.793e-05,0.0,0 STARLINK-3569,1 51811U 22017AV  23171.29209409  .00001793  00000-0  13072-3 0  9993,2 51811  53.2165 118.6536 0001240  83.4334 276.6800 15.08831996 74091,6917.905,95.438,540.628,538.912,0.0
51811.0,STARLINK-3569,PAYLOAD,2023-06-20 13:22:09,15.08837365,0.0001267,53.2167,117.4641,83.1841,276.9295,6.7601e-05,7.88e-06,0.0,0 STARLINK-3569,1 51811U 22017AV  23171.55705300  .00000788  00000-0  67601-4 0  9994,2 51811  53.2167 117.4641 0001267  83.1841 276.9295 15.08837365 74037,6917.888,95.438,540.63,538.877,0.0
51811.0,STARLINK-3569,PAYLOAD,2023-06-21 05:16:01,15.08814203,0.0001515,53.2176,114.4912,91.5791,268.5375,0.0003981,6.049e-05,0.0,0 STARLINK-3569,1 51811U 22017AV  23172.21945838  .00006049  00000-0  39810-3 0  9996,2 51811  53.2176 114.4912 0001515  91.5791 268.5375 15.08814203 74232,6917.959,95.439,540.872,538.776,0.0
51811.0,STARLINK-3569,PAYLOAD,2023-06-21 13:12:56,15.0883973,0.0001329,53.2172,113.004,84.6177,275.4967,-6.7896e-07,-2.99e-06,0.0,0 STARLINK-3569,1 51811U 22017AV  23172.55065548 -.00000299  00000-0 -67896-6 0  9995,2 51811  53.2172 113.0040 0001329  84.6177 275.4967 15.08839730 74189,6917.881,95.438,540.666,538.827,0.0
51811.0,STARLINK-3569,PAYLOAD,2023-06-21 19:34:29,15.08834465,0.0001447,53.2176,111.8159,90.5444,269.5714,9.5995e-06,-1.35e-06,0.0,0 STARLINK-3569,1 51811U 22017AV  23172.81561976 -.00000135  00000-0  95995-5 0  9998,2 51811  53.2176 111.8159 0001447  90.5444 269.5714 15.08834465 74223,6917.897,95.438,540.763,538.761,0.0
51811.0,STARLINK-3569,PAYLOAD,2023-06-23 01:46:48,15.0884475,0.0001021,53.2157,106.1655,96.8038,263.307,5.89e-05,6.5e-06,0.0,0 STARLINK-3569,1 51811U 22017AV  23174.07417247  .00000650  00000-0  58900-4 0  9994,2 51811  53.2157 106.1655 0001021  96.8038 263.3070 15.08844750 74513,6917.866,95.437,540.437,539.025,0.0
51811.0,STARLINK-3569,PAYLOAD,2023-06-24 01:37:35,15.08828431,6.35e-05,53.2177,101.6997,136.4673,223.637,0.0002842,4.237e-05,0.0,0 STARLINK-3569,1 51811U 22017AV  23175.06777421  .00004237  00000-0  28420-3 0  9995,2 51811  53.2177 101.6997 0000635 136.4673 223.6370 15.08828431 74666,6917.916,95.438,540.22,539.341,0.0
51811.0,STARLINK-3569,PAYLOAD,2023-06-24 04:48:21,15.08847059,0.0001364,53.2176,101.1074,125.927,234.1849,4.1878e-05,3.79e-06,0.0,0 STARLINK-3569,1 51811U 22017AV  23175.20024933  .00000379  00000-0  41878-4 0  9990,2 51811  53.2176 101.1074 0001364 125.9270 234.1849 15.08847059 74689,6917.859,95.437,540.667,538.78,0.0
51811.0,STARLINK-3569,PAYLOAD,2023-06-25 01:28:22,15.08842475,0.0001074,53.2158,97.2427,92.0088,268.1027,3.7556e-05,3.1e-06,0.0,0 STARLINK-3569,1 51811U 22017AV  23176.06137336  .00000310  00000-0  37556-4 0  9990,2 51811  53.2158  97.2427 0001074  92.0088 268.1027 15.08842475 74812,6917.873,95.437,540.481,538.995,0.0
51811.0,STARLINK-3569,PAYLOAD,2023-06-26 02:54:32,15.08842714,0.0001176,53.2166,92.4857,89.2578,270.8549,8.6337e-06,-1.5e-06,0.0,0 STARLINK-3569,1 51811U 22017AV  23177.12121448 -.00000150  00000-0  86337-5 0  9990,2 51811  53.2166  92.4857 0001176  89.2578 270.8549 15.08842714 74972,6917.872,95.437,540.551,538.924,0.0
51811.0,STARLINK-3569,PAYLOAD,2023-06-26 10:51:29,15.08834943,0.0001316,53.2164,90.9988,88.0166,272.0977,-3.9938e-05,-9.23e-06,0.0,0 STARLINK-3569,1 51811U 22017AV  23177.45242168 -.00000923  00000-0 -39938-4 0  9992,2 51811  53.2164  90.9988 0001316  88.0166 272.0977 15.08834943 75025,6917.896,95.438,540.671,538.85,0.0
51811.0,STARLINK-3569,PAYLOAD,2023-06-27 02:45:20,15.08841982,0.0001126,53.2174,88.0269,87.9599,272.1522,8.2032e-06,-1.57e-06,0.0,0 STARLINK-3569,1 51811U 22017AV  23178.11481919 -.00000157  00000-0  82032-5 0  9997,2 51811  53.2174  88.0269 0001126  87.9599 272.1522 15.08841982 75122,6917.874,95.437,540.518,538.96,0.0
51811.0,STARLINK-3569,PAYLOAD,2023-06-28 01:00:44,15.08833707,0.0001289,53.2182,83.8663,91.2257,268.8883,4.7648e-05,4.7e-06,0.0,0 STARLINK-3569,1 51811U 22017AV  23179.04218676  .00000470  00000-0  47648-4 0  9998,2 51811  53.2182  83.8663 0001289  91.2257 268.8883 15.08833707 75264,6917.9,95.438,540.656,538.873,0.0
51811.0,STARLINK-3569,PAYLOAD,2023-06-28 04:11:30,15.08839405,0.0001238,53.218,83.2693,89.7176,270.3958,8.3027e-05,1.034e-05,0.0,0 STARLINK-3569,1 51811U 22017AV  23179.17466203  .00001034  00000-0  83027-4 0  9991,2 51811  53.2180  83.2693 0001238  89.7176 270.3958 15.08839405 75289,6917.882,95.438,540.604,538.891,0.0
51811.0,STARLINK-3569,PAYLOAD,2023-07-01 02:08:29,15.08821249,0.000136,53.2174,70.186,88.0484,272.0664,0.00035664,5.39e-05,0.0,0 STARLINK-3569,1 51811U 22017AV  23182.08922821  .00005390  00000-0  35664-3 0  9990,2 51811  53.2174  70.1860 0001360  88.0484 272.0664 15.08821249 75722,6917.938,95.439,540.744,538.862,0.0
51811.0,STARLINK-3569,PAYLOAD,2023-07-02 01:59:15,15.08847348,0.000123,53.2176,65.7239,88.3256,271.7877,4.3786e-05,4.09e-06,0.0,0 STARLINK-3569,1 51811U 22017AV  23183.08282143  .00000409  00000-0  43786-4 0  9998,2 51811  53.2176  65.7239 0001230  88.3256 271.7877 15.08847348 75876,6917.858,95.437,540.574,538.872,0.0
51811.0,STARLINK-3569,PAYLOAD,2023-07-03 00:14:40,15.0884237,0.0001314,53.2175,61.561,88.4027,271.7116,2.8524e-05,1.66e-06,0.0,0 STARLINK-3569,1 51811U 22017AV  23184.01018588  .00000166  00000-0  28524-4 0  9995,2 51811  53.2175  61.5610 0001314  88.4027 271.7116 15.08842370 76015,6917.873,95.437,540.647,538.829,0.0
51811.0,STARLINK-3569,PAYLOAD,2023-07-04 01:40:49,15.08845973,0.000124,53.2185,56.8028,87.8056,272.3079,4.1375e-05,3.71e-06,0.0,0 STARLINK-3569,1 51811U 22017AV  23185.07002275  .00000371  00000-0  41375-4 0  9995,2 51811  53.2185  56.8028 0001240  87.8056 272.3079 15.08845973 76173,6917.862,95.437,540.585,538.869,0.0
51811.0,STARLINK-3569,PAYLOAD,2023-07-04 15:59:19,15.08834947,0.0001253,53.2185,54.1257,87.8547,272.2589,-1.5068e-05,-5.28e-06,0.0,0 STARLINK-3569,1 51811U 22017AV  23185.66619262 -.00000528  00000-0 -15068-4 0  9996,2 51811  53.2185  54.1257 0001253  87.8547 272.2589 15.08834947 76261,6917.896,95.438,540.628,538.894,0.0
51811.0,STARLINK-3569,PAYLOAD,2023-07-04 23:56:14,15.08841922,0.0001211,53.2183,52.641,93.0843,267.0288,5.2311e-05,5.45e-06,0.0,0 STARLINK-3569,1 51811U 22017AV  23185.99738590  .00000545  00000-0  52311-4 0  9997,2 51811  53.2183  52.6410 0001211  93.0843 267.0288 15.08841922 76310,6917.875,95.437,540.577,538.902,0.0
